CORVUS BC1
1 42847U 17042Y   22162.12939836  .00000736  00000+0  75811-4 0  9994
2 42847  97.4241  20.1017 0009746  26.6202 333.5517 14.92984150267341
MIRATA
1 43015U 17073C   22162.21830558  .00002986  00000+0  22145-3 0  9997
2 43015  97.6757  57.7591 0238457 201.2767 157.8404 14.83888997246347
MAKERSAT 0
1 43016U 17073D   22162.17477061  .00002198  00000+0  16774-3 0  9995
2 43016  97.6778  57.3129 0245075 205.6843 153.2033 14.82250169246252
AEROCUBE 7B (OCSD B)
1 43042U 17071F   22162.19805784  .00117412  00000+0  64169-3 0  9998
2 43042  51.6331  75.2105 0005170 132.3189 227.8251 15.78988659254705
AEROCUBE 7C (OCSD C)
1 43043U 17071G   22161.33881936  .00110530  00000+0  67508-3 0  9991
2 43043  51.6297  81.4401 0004728 123.4070 236.7383 15.76526521254511
ASGARDIA 1
1 43049U 17071N   22161.50544187  .00079303  00000+0  59393-3 0  9995
2 43049  51.6324  82.7594 0004063 106.9429 253.2015 15.71940224254512
PROPCUBE 2 (FAUNA)
1 43052U 17071R   22161.97199257  .00145520  00000+0  74460-3 0  9991
2 43052  51.6261  70.7703 0004179 131.8533 228.2826 15.80347104254707
CORVUS BC3
1 43118U 18004H   22162.14491532  .00005118  00000+0  19414-3 0  9998
2 43118  97.3631 234.9322 0009714  35.3531 324.8351 15.27258730245258
MICROMAS-2A
1 43131U 18004W   22162.49002930  .00018912  00000+0  54099-3 0  9995
2 43131  97.3761 241.7542 0005655  24.7333 335.4181 15.35995419245664
SPACEBEE-4
1 43139U 18004AE  22162.20989242  .00032477  00000+0  71670-3 0  9998
2 43139  97.3853 246.2889 0002941  15.9164 344.2176 15.43820928245873
SPACEBEE-3
1 43140U 18004AF  22162.19582471  .00061473  00000+0  97002-3 0  9996
2 43140  97.3897 249.9102 0001111 270.5035  89.6090 15.53322963246092
SPACEBEE-2
1 43141U 18004AG  22162.20060870  .00085797  00000+0  11382-2 0  9994
2 43141  97.3911 251.3716 0002558 247.4052 112.6933 15.57958982246178
SPACEBEE-1
1 43142U 18004AH  22162.20082646  .00137649  00000+0  13731-2 0  9994
2 43142  97.3900 253.0275 0005328 240.1086 119.9644 15.65192305246268
CICERO 7
1 43143U 18004AJ  22162.19866074  .00010361  00000+0  32305-3 0  9998
2 43143  97.3739 241.0266 0005719  38.5935 321.5715 15.33412925245618
GOMX-4B
1 43196U 18015E   22161.86326823  .00004507  00000+0  17221-3 0  9999
2 43196  97.5323 301.1839 0018634  82.2522 278.0831 15.26985529242157
GOMX-4A
1 43197U 18015F   22162.63140226  .00005290  00000+0  19144-3 0  9993
2 43197  97.5320 302.7411 0018237  79.4588 342.9609 15.28706976242330
AEROCUBE 12A
1 43556U 18046C   22162.39929982  .00011986  00000+0  31472-3 0  9990
2 43556  51.6367 213.3735 0008333  12.2306 347.8879 15.39014997218384
AEROCUBE 12B
1 43557U 18046D   22162.52379898  .00009186  00000+0  25856-3 0  9999
2 43557  51.6373 217.1379 0008216  11.1936 348.9228 15.37169863218296
SURFSAT
1 43614U 18070B   22162.20821901  .00029071  00000+0  43609-3 0  9993
2 43614  93.0314  96.0977 0013906  57.3761 302.8842 15.54714244210092
CP7 (DAVE)
1 43615U 18070C   22162.08341909  .00027536  00000+0  43104-3 0  9999
2 43615  93.0301  95.9034 0014229  57.9226 302.3416 15.53541494210043
ELFIN-B
1 43616U 18070D   22162.50793130  .00071217  00000+0  68582-3 0  9996
2 43616  93.0210  97.2235 0011565  58.6047 301.6351 15.66227264210422
ELFIN-A
1 43617U 18070E   22162.51993210  .00082441  00000+0  72737-3 0  9997
2 43617  93.0274  98.5637 0010456  58.9466 301.2829 15.68380026210478
CUBEBEL-1 (BSUSAT-1)
1 43666U 18083E   22162.48977321  .00006560  00000+0  28028-3 0  9998
2 43666  97.4211 191.2422 0012708   3.1213 131.5074 15.23129757200577
CICERO 10
1 43690U 18088A   22162.46094353  .00006488  00000+0  25971-3 0  9996
2 43690  85.0348 320.3158 0014194 161.9826 198.1923 15.24763485198822
IRVINE01
1 43693U 18088D   22161.69716303  .00026749  00000+0  72826-3 0  9992
2 43693  85.0279 315.4268 0013814 134.9541 225.2833 15.37271666199188
PROXIMA I
1 43694U 18088E   22161.83709777  .00007088  00000+0  27010-3 0  9996
2 43694  85.0286 317.4382 0018761 134.4997 225.7785 15.26340254198966
PROXIMA II
1 43696U 18088G   22161.77160369  .00006763  00000+0  25781-3 0  9991
2 43696  85.0287 317.4997 0018800 134.6969 225.5811 15.26318644198940
FACSAT-1
1 43721U 18096C   22162.52097289  .00014451  00000+0  41237-3 0  9990
2 43721  97.3508 242.3457 0014964  79.9104  44.6202 15.36033457197060
CENTAURI-2
1 43722U 18096D   22162.18417159  .00018539  00000+0  47714-3 0  9992
2 43722  97.3560 243.9455 0013522  77.8172 282.4587 15.39196970197112
INNOSAT-2
1 43738U 18096V   22162.52755286  .00037543  00000+0  69903-3 0  9993
2 43738  97.3653 251.2428 0013662  68.9858 303.7186 15.48659092197594
SIRION PATHFINDER-2
1 43759U 18099B   22162.15400279  .00000863  00000+0  81218-4 0  9996
2 43759  97.6210 229.0874 0012373 284.1569  75.8278 14.96340513192104
CORVUS BC4
1 43767U 18099K   22162.17263597  .00000985  00000+0  93428-4 0  9998
2 43767  97.6160 227.6223 0010107 290.2070  69.8064 14.95731381192031
MOVE-II
1 43780U 18099Y   22162.13597911  .00003671  00000+0  31818-3 0  9998
2 43780  97.6249 229.7547 0010814 293.6716  66.3371 14.97665420192119
SPACEBEE-7
1 43816U 18099BL  22162.18919420  .00002301  00000+0  20172-3 0  9996
2 43816  97.6256 230.5345 0011485 273.6490  86.3419 14.97579216191712
SPACEBEE-5
1 43817U 18099BM  22162.13334440  .00006454  00000+0  50942-3 0  9996
2 43817  97.6382 233.2919 0007623 296.2029  63.8411 15.01028770191822
SPACEBEE-6
1 43818U 18099BN  22162.14992949  .00003822  00000+0  32335-3 0  9994
2 43818  97.6324 231.3477 0010239 273.4881  86.5171 14.98586685191898
SHIELDS 1
1 43850U 18104B   22162.13422936  .00002512  00000+0  10339-3 0  9995
2 43850  85.0301  56.4127 0011795 293.1860  66.8140 15.23535327193549
STF-1
1 43852U 18104D   22162.17408967  .00006451  00000+0  24481-3 0  9998
2 43852  85.0328  56.7216 0010666 309.7743  50.2561 15.26584510193581
ZACUBE-2
1 43907U 18111AH  22162.61752659  .00006015  00000+0  22377-3 0  9994
2 43907  97.1914  49.1215 0022155 100.2000 347.2902 15.27629653192405
LUME 1
1 43908U 18111AJ  22162.16782850  .00007244  00000+0  24845-3 0  9998
2 43908  97.1932  50.1734 0020750  96.0672 264.2935 15.30249164192436
AOBA VELOX-IV
1 43940U 19003J   22162.56352879  .00024839  00000+0  68289-3 0  9992
2 43940  97.1271 198.5870 0019440 160.9282 199.2695 15.36996579189226
MOVE-IIB
1 44398U 19038N   22161.90021812  .00006882  00000+0  33582-3 0  9991
2 44398  97.6355 131.1866 0023132 145.9581 214.3143 15.18386212162043
SONATE
1 44400U 19038Q   22162.18059950  .00002752  00000+0  15187-3 0  9993
2 44400  97.6416 130.6562 0024601 151.0236 209.2372 15.14565260161986
LUCKY-7
1 44406U 19038W   22162.18280384  .00003887  00000+0  20774-3 0  9994
2 44406  97.6375 131.1527 0023840 148.2244 212.0433 15.15459953162011
BEESAT 9
1 44412U 19038AC  22162.18394948  .00005502  00000+0  28247-3 0  9992
2 44412  97.6346 131.4246 0021363 150.9789 209.2636 15.16739599161749
JAISAT-1
1 44419U 19038F   22161.84188762  .00005266  00000+0  26704-3 0  9999
2 44419  97.6348 131.9123 0020423 149.1317 211.1121 15.17212333162059
DUCHIFAT-3
1 44854U 19089C   22162.34812387  .00002026  00000+0  16166-3 0  9993
2 44854  36.9639 136.5382 0007600 181.2981 329.7032 15.01031719137010
EYESAT-NANO
1 44877U 19092E   22162.07236254  .00007539  00000+0  32898-3 0  9999
2 44877  97.4638 346.4860 0011691  26.5974 333.5860 15.22374003137399
ORBITAL FACTORY 2 (OF-2)
1 45113U 19071C   22161.83627857  .00019208  00000+0  40670-3 0  9999
2 45113  51.6380  91.9159 0010404 139.2386 220.9381 15.45076393132356
M2 PATHFINDER
1 45727U 20037E   22161.91430731  .00001378  00000+0  14125-3 0  9991
2 45727  97.7342 337.4960 0013825  61.0438 299.2166 14.92008633105852
NETSAT-4
1 46504U 20068U   22161.78690307  .00001938  00000+0  14699-3 0  9999
2 46504  97.7253 101.5895 0012566 355.6463   4.4654 15.03379133 93049
NETSAT-3
1 46505U 20068V   22161.80197097  .00001010  00000+0  78878-4 0  9992
2 46505  97.7265 101.5304 0012209   7.1662 352.9735 15.03337331 93058
NETSAT-1
1 46506U 20068W   22161.81799319  .00001546  00000+0  11846-3 0  9994
2 46506  97.7261 101.4776 0010017  20.4876 339.6750 15.03295540 93051
NETSAT-2
1 46507U 20068X   22161.56118737  .00001875  00000+0  14284-3 0  9990
2 46507  97.7256 101.2134 0009006  26.8378 333.3336 15.03271895 92962
SPOC
1 46921U 98067RR  22162.54612804  .00423357  88544-4  77525-3 0  9991
2 46921  51.6246 318.2889 0009966 295.0276  64.9699 16.00664321 91066
NEUTRON-1
1 46923U 98067RT  22162.46787823  .00412109  83887-4  77402-3 0  9990
2 46923  51.6237 319.2822 0009541 294.8871  65.1147 16.00237189 91073
DESCENT
1 46927U 98067RX  22162.46346748  .00735598  29487-3  83893-3 0  9997
2 46927  51.6238 317.7122 0012093 299.8358  60.1453 16.08353894 91003
SAI-1 NANOCONNECT-2
1 47701U 21015C   22162.21104190  .00008191  00000+0  30964-3 0  9992
2 47701  97.4236 239.1702 0012893 115.8620 244.3950 15.27157185 71267
RSP-01
1 47925U 98067SB  22159.97733955  .03925807  12084-4  94924-3 0  9998
2 47925  51.6203 339.3535 0014703 285.6985  74.2415 16.28293158 70538
TSURU
1 47927U 98067SD  22162.51676065  .00284070  41415-4  84513-3 0  9992
2 47927  51.6303 332.4337 0008319 276.7982  83.2078 15.91912278 70859
MAYA-2
1 47929U 98067SF  22161.77213869  .00249732  34135-4  78542-3 0  9992
2 47929  51.6305 336.4649 0007850 270.9417  89.0690 15.90875028 70697
GUARANISAT-1
1 47931U 98067SH  22161.62215362  .00255267  35395-4  77484-3 0  9992
2 47931  51.6284 336.9721 0007995 273.7446  86.2646 15.91555194 70718
BEESAT-6
1 47957U 21022AB  22162.24381439  .00003737  00000+0  24252-3 0  9993
2 47957  97.5284  61.9694 0020421 162.2881 325.6546 15.08502065 66860
SMOG-1
1 47964U 21022AJ  22161.41593086  .00004540  00000+0  28282-3 0  9992
2 47964  97.5313  62.1653 0019236 154.9115 205.3053 15.09918436 65825
MMSATS-1
1 47976U 98067SJ  22162.23546320  .00018255  00000+0  23825-3 0  9994
2 47976  51.6479 356.1598 0000397   2.7029 357.3946 15.58740471 69298
BCCSAT-1
1 48041U 21022AK  22162.19303404  .00004185  00000+0  26715-3 0  9992
2 48041  97.5328  62.5593 0016042 149.1789 211.0385 15.09106466 65891
